{"type": "FeatureCollection", "features": [ {"type": "Feature", "properties": {"norad_id": 37340, "name": "COSMOS 2251 DEB", "group": "cosmos-2251-debris", "lat": -70.38844947396596, "lon": -150.14567610986103, "alt_km": 772.2409351940623, "timestamp": "2025-12-20T05:41:50.429024+00:00", "meta": {"OBJECT_NAME": "COSMOS 2251 DEB", "OBJECT_ID": "1993-036BLG", "EPOCH": "2025-12-19T03:19:36.196032", "MEAN_MOTION": 14.36930541, "ECCENTRICITY": 0.00180628, "INCLINATION": 74.0254, "RA_OF_ASC_NODE": 265.3825, "ARG_OF_PERICENTER": 358.9051, "MEAN_ANOMALY": 1.206, "EPHEMERIS_TYPE": 0, "CLASSIFICATION_TYPE": "U", "NORAD_CAT_ID": 37340, "ELEMENT_SET_NO": 999, "REV_AT_EPOCH": 84159, "BSTAR": 0.00014760605, "MEAN_MOTION_DOT": 4.11e-06, "MEAN_MOTION_DDOT": 0}, "tle": {"line1": "1 37340U 93036BLG 25353.13861338  .00000411  00000+0  14761-3 0  9996", "line2": "2 37340  74.0254 265.3825 0018062 358.9051   1.2060 14.36930541841592"}}, "geometry": {"type": "Point", "coordinates": [-150.14567610986103, -70.38844947396596]}}, {"type": "Feature", "properties": {"norad_id": 37483, "name": "COSMOS 2251 DEB", "group": "cosmos-2251-debris", "lat": -31.134471800374122, "lon": -40.654163424546894, "alt_km": 786.939633442109, "timestamp": "2025-12-20T05:41:50.429034+00:00", "meta": {"OBJECT_NAME": "COSMOS 2251 DEB", "OBJECT_ID": "1993-036BLL", "EPOCH": "2025-12-19T15:24:15.613632", "MEAN_MOTION": 14.43565885, "ECCENTRICITY": 0.0093433, "INCLINATION": 73.9738, "RA_OF_ASC_NODE": 130.458, "ARG_OF_PERICENTER": 335.3971, "MEAN_ANOMALY": 24.2741, "EPHEMERIS_TYPE": 0, "CLASSIFICATION_TYPE": "U", "NORAD_CAT_ID": 37483, "ELEMENT_SET_NO": 999, "REV_AT_EPOCH": 65379, "BSTAR": 0.00014162, "MEAN_MOTION_DOT": 4.76e-06, "MEAN_MOTION_DDOT": 0}, "tle": {"line1": "1 37483U 93036BLL 25353.64184738  .00000476  00000+0  14162-3 0  9998", "line2": "2 37483  73.9738 130.4580 0093433 335.3971  24.2741 14.43565885653797"}}, "geometry": {"type": "Point", "coordinates": [-40.654163424546894, -31.134471800374122]}}, {"type": "Feature", "properties": {"norad_id": 37484, "name": "COSMOS 2251 DEB", "group": "cosmos-2251-debris", "lat": 51.623437103161606, "lon": -144.1304047631759, "alt_km": 775.2700255112459, "timestamp": "2025-12-20T05:41:50.429044+00:00", "meta": {"OBJECT_NAME": "COSMOS 2251 DEB", "OBJECT_ID": "1993-036BLM", "EPOCH": "2025-12-18T07:38:27.570624", "MEAN_MOTION": 14.41807924, "ECCENTRICITY": 0.00394245, "INCLINATION": 73.8227, "RA_OF_ASC_NODE": 197.9673, "ARG_OF_PERICENTER": 231.9462, "MEAN_ANOMALY": 306.1628, "EPHEMERIS_TYPE": 0, "CLASSIFICATION_TYPE": "U", "NORAD_CAT_ID": 37484, "ELEMENT_SET_NO": 999, "REV_AT_EPOCH": 65459, "BSTAR": 0.0005692289, "MEAN_MOTION_DOT": 1.85e-05, "MEAN_MOTION_DDOT": 0}, "tle": {"line1": "1 37484U 93036BLM 25352.31837466  .00001850  00000+0  56923-3 0  9993", "line2": "2 37484  73.8227 197.9673 0039424 231.9462 306.1628 14.41807924654593"}}, "geometry": {"type": "Point", "coordinates": [-144.1304047631759, 51.623437103161606]}}, {"type": "Feature", "properties": {"norad_id": 37486, "name": "COSMOS 2251 DEB", "group": "cosmos-2251-debris", "lat": -72.8447236970873, "lon": -7.446033480629473, "alt_km": 777.1254557091825, "timestamp": "2025-12-20T05:41:50.429055+00:00", "meta": {"OBJECT_NAME": "COSMOS 2251 DEB", "OBJECT_ID": "1993-036BLP", "EPOCH": "2025-12-17T02:32:52.709568", "MEAN_MOTION": 14.133616, "ECCENTRICITY": 0.02300438, "INCLINATION": 73.6918, "RA_OF_ASC_NODE": 106.7033, "ARG_OF_PERICENTER": 334.068, "MEAN_ANOMALY": 206.8915, "EPHEMERIS_TYPE": 0, "CLASSIFICATION_TYPE": "U", "NORAD_CAT_ID": 37486, "ELEMENT_SET_NO": 999, "REV_AT_EPOCH": 63431, "BSTAR": 0.0015394853, "MEAN_MOTION_DOT": 3.693e-05, "MEAN_MOTION_DDOT": 0}, "tle": {"line1": "1 37486U 93036BLP 25351.10616562  .00003693  00000+0  15395-2 0  9997", "line2": "2 37486  73.6918 106.7033 0230043 334.0680 206.8915 14.13361600634313"}}, "geometry": {"type": "Point", "coordinates": [-7.446033480629473, -72.8447236970873]}}, {"type": "Feature", "properties": {"norad_id": 37487, "name": "COSMOS 2251 DEB", "group": "cosmos-2251-debris", "lat": 29.53674522081051, "lon": -173.4056713322676, "alt_km": 605.7208602220389, "timestamp": "2025-12-20T05:41:50.429065+00:00", "meta": {"OBJECT_NAME": "COSMOS 2251 DEB", "OBJECT_ID": "1993-036BLQ", "EPOCH": "2025-12-12T06:17:24.389376", "MEAN_MOTION": 14.80982589, "ECCENTRICITY": 0.00255931, "INCLINATION": 73.9026, "RA_OF_ASC_NODE": 193.0379, "ARG_OF_PERICENTER": 31.2136, "MEAN_ANOMALY": 329.0553, "EPHEMERIS_TYPE": 0, "CLASSIFICATION_TYPE": "U", "NORAD_CAT_ID": 37487, "ELEMENT_SET_NO": 999, "REV_AT_EPOCH": 81238, "BSTAR": 0.0042593386, "MEAN_MOTION_DOT": 0.00033302, "MEAN_MOTION_DDOT": 0}, "tle": {"line1": "1 37487U 93036BLQ 25346.26208784  .00033302  00000+0  42593-2 0  9992", "line2": "2 37487  73.9026 193.0379 0025593  31.2136 329.0553 14.80982589812383"}}, "geometry": {"type": "Point", "coordinates": [-173.4056713322676, 29.53674522081051]}}, {"type": "Feature", "properties": {"norad_id": 37491, "name": "COSMOS 2251 DEB", "group": "cosmos-2251-debris", "lat": 9.781583312204793, "lon": 78.66916930059061, "alt_km": 948.2022762910801, "timestamp": "2025-12-20T05:41:50.429074+00:00", "meta": {"OBJECT_NAME": "COSMOS 2251 DEB", "OBJECT_ID": "1993-036BLU", "EPOCH": "2025-12-18T10:56:34.756512", "MEAN_MOTION": 13.75306466, "ECCENTRICITY": 0.03168182, "INCLINATION": 73.9061, "RA_OF_ASC_NODE": 264.5073, "ARG_OF_PERICENTER": 256.5569, "MEAN_ANOMALY": 100.0063, "EPHEMERIS_TYPE": 0, "CLASSIFICATION_TYPE": "U", "NORAD_CAT_ID": 37491, "ELEMENT_SET_NO": 999, "REV_AT_EPOCH": 55825, "BSTAR": 0.00075469167, "MEAN_MOTION_DOT": 1.019e-05, "MEAN_MOTION_DDOT": 0}, "tle": {"line1": "1 37491U 93036BLU 25352.45595783  .00001019  00000+0  75469-3 0  9992", "line2": "2 37491  73.9061 264.5073 0316818 256.5569 100.0063 13.75306466558250"}}, "geometry": {"type": "Point", "coordinates": [78.66916930059061, 9.781583312204793]}}, {"type": "Feature", "properties": {"norad_id": 37498, "name": "COSMOS 2251 DEB", "group": "cosmos-2251-debris", "lat": -22.989744784442617, "lon": -3.326167749946788, "alt_km": 707.464947215929, "timestamp": "2025-12-20T05:41:50.429085+00:00", "meta": {"OBJECT_NAME": "COSMOS 2251 DEB", "OBJECT_ID": "1993-036BMB", "EPOCH": "2025-12-17T05:47:45.632832", "MEAN_MOTION": 14.54797097, "ECCENTRICITY": 0.00121661, "INCLINATION": 74.035, "RA_OF_ASC_NODE": 175.365, "ARG_OF_PERICENTER": 238.5243, "MEAN_ANOMALY": 121.4732, "EPHEMERIS_TYPE": 0, "CLASSIFICATION_TYPE": "U", "NORAD_CAT_ID": 37498, "ELEMENT_SET_NO": 999, "REV_AT_EPOCH": 65420, "BSTAR": 0.00050498457, "MEAN_MOTION_DOT": 2.139e-05, "MEAN_MOTION_DDOT": 0}, "tle": {"line1": "1 37498U 93036BMB 25351.24150038  .00002139  00000+0  50498-3 0  9994", "line2": "2 37498  74.0350 175.3650 0012166 238.5243 121.4732 14.54797097654202"}}, "geometry": {"type": "Point", "coordinates": [-3.326167749946788, -22.989744784442617]}}, {"type": "Feature", "properties": {"norad_id": 37499, "name": "COSMOS 2251 DEB", "group": "cosmos-2251-debris", "lat": -42.75272134866824, "lon": 143.80758388438986, "alt_km": 801.4685704533649, "timestamp": "2025-12-20T05:41:50.429095+00:00", "meta": {"OBJECT_NAME": "COSMOS 2251 DEB", "OBJECT_ID": "1993-036BMC", "EPOCH": "2025-12-18T20:50:53.978784", "MEAN_MOTION": 14.34348181, "ECCENTRICITY": 0.00271787, "INCLINATION": 74.038, "RA_OF_ASC_NODE": 310.9692, "ARG_OF_PERICENTER": 25.1963, "MEAN_ANOMALY": 335.0508, "EPHEMERIS_TYPE": 0, "CLASSIFICATION_TYPE": "U", "NORAD_CAT_ID": 37499, "ELEMENT_SET_NO": 999, "REV_AT_EPOCH": 85237, "BSTAR": 0.00013763408, "MEAN_MOTION_DOT": 3.62e-06, "MEAN_MOTION_DDOT": 0}, "tle": {"line1": "1 37499U 93036BMC 25352.86868031  .00000362  00000+0  13763-3 0  9993", "line2": "2 37499  74.0380 310.9692 0027178  25.1963 335.0508 14.34348181852373"}}, "geometry": {"type": "Point", "coordinates": [143.80758388438986, -42.75272134866824]}}, {"type": "Feature", "properties": {"norad_id": 37528, "name": "COSMOS 2251 DEB", "group": "cosmos-2251-debris", "lat": 72.59529182283838, "lon": -137.89051963791772, "alt_km": 730.4606208209871, "timestamp": "2025-12-20T05:41:50.429105+00:00", "meta": {"OBJECT_NAME": "COSMOS 2251 DEB", "OBJECT_ID": "1993-036BNH", "EPOCH": "2025-12-19T14:21:12.198240", "MEAN_MOTION": 14.50543409, "ECCENTRICITY": 0.0021102, "INCLINATION": 74.0372, "RA_OF_ASC_NODE": 109.2477, "ARG_OF_PERICENTER": 256.6306, "MEAN_ANOMALY": 103.2502, "EPHEMERIS_TYPE": 0, "CLASSIFICATION_TYPE": "U", "NORAD_CAT_ID": 37528, "ELEMENT_SET_NO": 999, "REV_AT_EPOCH": 86030, "BSTAR": 0.00032831, "MEAN_MOTION_DOT": 1.262e-05, "MEAN_MOTION_DDOT": 0}, "tle": {"line1": "1 37528U 93036BNH 25353.59805785  .00001262  00000+0  32831-3 0  9991", "line2": "2 37528  74.0372 109.2477 0021102 256.6306 103.2502 14.50543409860309"}}, "geometry": {"type": "Point", "coordinates": [-137.89051963791772, 72.59529182283838]}}, {"type": "Feature", "properties": {"norad_id": 37530, "name": "COSMOS 2251 DEB", "group": "cosmos-2251-debris", "lat": -61.884983460229826, "lon": -72.48223737129402, "alt_km": 782.320682713982, "timestamp": "2025-12-20T05:41:50.429115+00:00", "meta": {"OBJECT_NAME": "COSMOS 2251 DEB", "OBJECT_ID": "1993-036BNK", "EPOCH": "2025-12-16T15:31:15.279168", "MEAN_MOTION": 14.34508686, "ECCENTRICITY": 0.00259991, "INCLINATION": 74.0359, "RA_OF_ASC_NODE": 326.4868, "ARG_OF_PERICENTER": 27.4409, "MEAN_ANOMALY": 90.6459, "EPHEMERIS_TYPE": 0, "CLASSIFICATION_TYPE": "U", "NORAD_CAT_ID": 37530, "ELEMENT_SET_NO": 999, "REV_AT_EPOCH": 85288, "BSTAR": 0.00021920121, "MEAN_MOTION_DOT": 5.94e-06, "MEAN_MOTION_DDOT": 0}, "tle": {"line1": "1 37530U 93036BNK 25350.64670462  .00000594  00000+0  21920-3 0  9993", "line2": "2 37530  74.0359 326.4868 0025999  27.4409  90.6459 14.34508686852884"}}, "geometry": {"type": "Point", "coordinates": [-72.48223737129402, -61.884983460229826]}}]}